[{"OBJECT_NAME":"NUSAT-33 (ALBANIA-2)","OBJECT_ID":"2023-001AQ","EPOCH":"2026-03-09T22:33:27.663264","MEAN_MOTION":15.26923259,"ECCENTRICITY":0.00076854,"INCLINATION":97.3178,"RA_OF_ASC_NODE":131.8399,"ARG_OF_PERICENTER":52.546,"MEAN_ANOMALY":307.6477,"EPHEMERIS_TYPE":0,"CLASSIFICATION_TYPE":"U","NORAD_CAT_ID":55047,"ELEMENT_SET_NO":999,"REV_AT_EPOCH":17716,"BSTAR":0.0004947656,"MEAN_MOTION_DOT":0.00013029,"MEAN_MOTION_DDOT":0},{"OBJECT_NAME":"STARLINK-30106","OBJECT_ID":"2023-056C","EPOCH":"2026-03-09T22:00:01.999584","MEAN_MOTION":15.26749083,"ECCENTRICITY":0.00016875,"INCLINATION":43.003,"RA_OF_ASC_NODE":207.2618,"ARG_OF_PERICENTER":291.4212,"MEAN_ANOMALY":266.2264,"EPHEMERIS_TYPE":0,"CLASSIFICATION_TYPE":"U","NORAD_CAT_ID":56288,"ELEMENT_SET_NO":999,"REV_AT_EPOCH":577,"BSTAR":-0.00051497468,"MEAN_MOTION_DOT":-0.00014051,"MEAN_MOTION_DDOT":0}]
